CUBESAT XI-V            
1 28895U 05043F   22329.35414880  .00000691  00000+0  13874-3 0  9996
2 28895  98.1283  98.4917 0016344 358.9873   1.1294 14.64677904911190
CUTE-1.7+APD II (CO-65) 
1 32785U 08021C   22328.74475470  .00001879  00000+0  19877-3 0  9990
2 32785  97.6795 294.7567 0014192  65.0459 295.2232 14.90270633790350
AAUSAT-II               
1 32788U 08021F   22328.87097420  .00003642  00000+0  30457-3 0  9999
2 32788  97.5487 308.7948 0010311 307.5661  52.4625 14.99054300792459
DELFI-C3 (DO-64)        
1 32789U 08021G   22329.37420222  .00010311  00000+0  50557-3 0  9990
2 32789  97.3261 350.1802 0011140 116.7077 243.5299 15.18251445796400
SEEDS II (CO-66)        
1 32791U 08021J   22328.88205909  .00002960  00000+0  28474-3 0  9995
2 32791  97.6321 300.2261 0013446  23.2611 336.9214 14.93675894791213
SWISSCUBE               
1 35932U 09051B   22329.07861697  .00000579  00000+0  13933-3 0  9991
2 35932  98.5455 189.3474 0006391 276.7664  83.2806 14.57092292699522
BEESAT-1                
1 35933U 09051C   22329.17057687  .00000467  00000+0  11441-3 0  9997
2 35933  98.5388 190.9526 0004698 292.7381  67.3320 14.57080135699657
ITUPSAT1                
1 35935U 09051E   22328.87473814  .00000476  00000+0  11870-3 0  9995
2 35935  98.5490 190.6614 0007040 296.0588  63.9884 14.56173212699226
TISAT 1                 
1 36799U 10035E   22329.07274043  .00002242  00000+0  21727-3 0  9999
2 36799  98.1601 185.7699 0010476 291.0758  68.9340 14.93757499671930
M-CUBED & EXP-1 PRIME   
1 37855U 11061F   22328.51530234  .00010536  00000+0  42809-3 0  9997
2 37855 101.7151 172.9679 0144028 301.7191  57.0055 15.15886121605458
AEROCUBE 4.5A           
1 38767U 12048K   22329.08095477  .00003670  00000+0  26045-3 0  9999
2 38767  64.6651 325.9474 0161446 218.4304 140.5224 14.96486648174803
AEROCUBE 4.5B           
1 38768U 12048L   22329.15728924  .00004134  00000+0  26286-3 0  9991
2 38768  64.6660 276.3505 0145364 213.6830 145.4986 15.01943886175269
STRAND-1                
1 39090U 13009E   22329.54011692  .00000202  00000+0  85265-4 0  9993
2 39090  98.3932 163.4241 0009560 145.6137 214.5669 14.35373450510526
BRITE-AUSTRIA           
1 39091U 13009F   22328.55191998  .00000133  00000+0  61252-4 0  9995
2 39091  98.3954 161.6569 0010867 155.5622 204.6081 14.35331911510406
SOMP                    
1 39134U 13015E   22329.20758699  .00017039  00000+0  50731-3 0  9992
2 39134  64.8599 252.4233 0030733 256.9891 102.7812 15.34372385531843
BEESAT-3                
1 39135U 13015F   22328.35115967  .00012468  00000+0  45317-3 0  9998
2 39135  64.8644 295.6439 0036278 259.9959  99.7077 15.27963861530507
BEESAT-2                
1 39136U 13015G   22328.38367311  .00011354  00000+0  43507-3 0  9996
2 39136  64.8732 304.7522 0025070 291.5167  68.3291 15.26607374530291
NEE-01 PEGASO           
1 39151U 13018B   22329.29725795  .00001048  00000+0  14049-3 0  9999
2 39151  98.0006  74.5300 0017890  94.0632 266.2625 14.81412008517496
ESTCUBE 1               
1 39161U 13021C   22329.47328605  .00000946  00000+0  15374-3 0  9991
2 39161  97.8958  42.4403 0008215 265.4882  94.5365 14.73305559513177
POPACS 1                
1 39268U 13055D   22328.70907047  .00010920  00000+0  26240-3 0  9991
2 39268  80.9952  66.4450 0548557  74.6796 291.4320 14.56406886476579
POPACS 2                
1 39269U 13055E   22328.40789918  .00010176  00000+0  27626-3 0  9996
2 39269  81.0091 128.6747 0633621 236.0871 117.8519 14.36046742473118
POPACS 3                
1 39270U 13055F   22329.49716268  .00006288  00000+0  18936-3 0  9999
2 39270  81.0121 163.3991 0680908 334.3519  22.5278 14.23807137472237
ZACUBE-1 (TSHEPISOSAT)  
1 39417U 13066B   22329.12699729  .00001473  00000+0  18272-3 0  9990
2 39417  97.6586 293.6092 0055407 237.0271 122.5610 14.83045492486938
WNISAT-1                
1 39423U 13066H   22329.51153608  .00000530  00000+0  11332-3 0  9994
2 39423  97.7270 198.9220 0174345 354.8883   5.0536 14.53670412477841
TRITON-1                
1 39427U 13066M   22329.33823491  .00000890  00000+0  14423-3 0  9995
2 39427  97.8243 258.2444 0112283 109.9585 251.3757 14.69470016482599
DELFI-N3XT              
1 39428U 13066N   22328.74248463  .00001577  00000+0  24445-3 0  9998
2 39428  97.8240 256.3372 0116702 124.5033 236.7260 14.70024680482250
GOMX-1                  
1 39430U 13066Q   22329.46840841  .00001292  00000+0  23733-3 0  9992
2 39430  97.7962 227.3881 0146702 257.0244 101.4503 14.60661838479799
CUBEBUG-2 (LO-74)       
1 39440U 13066AA  22328.85056197  .00001900  00000+0  26006-3 0  9990
2 39440  97.7476 279.8763 0077256 332.2791  27.4311 14.77625689483961
NEE-02 KRYSAOR          
1 39441U 13066AB  22329.13338103  .00001311  00000+0  18740-3 0  9995
2 39441  97.7588 277.2274 0079770 346.0930  13.8082 14.76178385484898
FUNCUBE-1 (AO-73)       
1 39444U 13066AE  22329.15504813  .00001675  00000+0  20112-3 0  9992
2 39444  97.6461 296.0725 0054224 223.7033 135.9883 14.84277805485940
UWE-3                   
1 39446U 13066AG  22328.86414938  .00001590  00000+0  20831-3 0  9993
2 39446  97.7081 286.2265 0066261 286.8558  72.5395 14.80232209484776
AEROCUBE 5A             
1 39465U 13072D   22328.88818613  .00037524  00000+0  15008-2 0  9996
2 39465 120.4793 197.6591 0168175  86.1015 275.9263 15.12771319173745
BRITE-CA1 (TORONTO)     
1 40020U 14033L   22329.37205024  .00000512  00000+0  93928-4 0  9990
2 40020  97.7981 120.3682 0087736 110.0528 251.0148 14.67289664451362
DUCHIFAT-1              
1 40021U 14033M   22329.41539533  .00003032  00000+0  28874-3 0  9998
2 40021  98.0328 282.8131 0010522 224.1581 135.8799 14.94149086458721
NANOSATC-BR1            
1 40024U 14033Q   22328.81646924  .00003018  00000+0  29741-3 0  9995
2 40024  98.0038 274.6828 0009832 234.7226 125.3074 14.92786075457899
QB50P1                  
1 40025U 14033R   22329.13655297  .00001720  00000+0  17814-3 0  9991
2 40025  97.9757 267.9622 0010204 246.0839 113.9310 14.91371303458210
QB50P2                  
1 40032U 14033Y   22328.75671768  .00002043  00000+0  21380-3 0  9999
2 40032  97.9497 262.3217 0009767 244.7754 115.2451 14.90732082458014
PERSEUS-M2              
1 40037U 14033AD  22329.37437495  .00000745  00000+0  88379-4 0  9999
2 40037  97.9001 250.7131 0012623 270.7665  89.2105 14.87446624457544
PERSEUS-M1              
1 40039U 14033AF  22329.20999645  .00000805  00000+0  95886-4 0  9991
2 40039  97.8883 248.0001 0012500 270.5028  89.4756 14.87046830457408
POLYITAN-1              
1 40042U 14033AJ  22328.73791615  .00002559  00000+0  26068-3 0  9992
2 40042  97.9864 268.9899 0012224 238.9847 121.0171 14.91586587457539
TIGRISAT                
1 40043U 14033AK  22328.51097153  .00000872  00000+0  13222-3 0  9999
2 40043  97.6547 149.1940 0058829 359.1409   0.9690 14.75383640453223
AEROCUBE 6A             
1 40045U 14033AM  22329.00687537  .00001178  00000+0  17069-3 0  9990
2 40045  97.6570 158.8936 0056265 344.1694  15.7756 14.76812943453710
AEROCUBE 6B             
1 40046U 14033AN  22329.47717914  .00001853  00000+0  26108-3 0  9999
2 40046  97.6496 157.7506 0054839 340.5542  19.3577 14.77410115453937
UKUBE-1                 
1 40074U 14037F   22329.24982894  .00001974  00000+0  23211-3 0  9996
2 40074  98.3605 218.1916 0005123 120.7202 239.4498 14.86108739453942
BRITE-PL2 (HEWELIUSZ)   
1 40119U 14049B   22329.21929860  .00000754  00000+0  93360-4 0  9998
2 40119  97.8848  63.2308 0018389  77.5302 282.7969 14.85508903447962
FIREBIRD 4              
1 40378U 15003C   22328.94621407  .00017846  00000+0  44359-3 0  9994
2 40378  99.0793 230.4468 0085475 197.4169 162.4134 15.36635564433010
GRIFEX                  
1 40379U 15003D   22329.42563372  .00011726  00000+0  37684-3 0  9999
2 40379  99.0870 214.9021 0105034 245.7943 113.2285 15.27221661432165
CP10 (EXOCUBE)          
1 40380U 15003E   22329.14324783  .00008432  00000+0  30491-3 0  9990
2 40380  99.0974 206.4800 0115553 274.2743  84.5291 15.22641194431590
TIANWANG 1A (TW-1A)     
1 40928U 15051D   22329.51955642  .00181290  00000+0  71615-3 0  9993
2 40928  97.0125 352.6483 0006932 121.8544  37.0114 15.86305799403483
EXACTVIEW 9             
1 40936U 15052G   22329.05502930  .00001550  00000+0  12405-3 0  9992
2 40936   6.0028 107.0409 0010888 272.2520  87.6361 14.77515206387047
AEROCUBE 5C             
1 40965U 15058B   22328.70550209  .00000782  00000+0  10756-3 0  9996
2 40965  64.7775 324.9165 0171700 146.4520 214.7602 14.76232957172615
AEROCUBE 7              
1 40966U 15058C   22329.11139781  .00000845  00000+0  11337-3 0  9997
2 40966  64.7774 320.4137 0169273 145.8791 215.3336 14.76935571172703
ATHENOXAT 1             
1 41168U 15077C   22329.37867736  .00017659  00000+0  62535-3 0  9996
2 41168  14.9906 333.7073 0008696 348.3942  50.3106 15.26401965384884
GALASSIA                
1 41170U 15077E   22328.69966504  .00012953  00000+0  48222-3 0  9995
2 41170  14.9893 331.7461 0009367   4.0536 355.9862 15.24243018384831
VELOX-II                
1 41171U 15077F   22329.35279037  .00007972  00000+0  33955-3 0  9990
2 41171  14.9922  49.2980 0007384 195.7797 164.2295 15.18579245384148
HORYU-4                 
1 41340U 16012D   22328.60423186  .00003393  00000+0  23016-3 0  9991
2 41340  31.0054  55.5766 0012615 356.8342   3.2213 15.04493288371856
E-ST@R-II               
1 41459U 16025D   22329.48171070  .00010853  00000+0  42441-3 0  9997
2 41459  98.1917 147.1592 0134921  81.5525 280.0913 15.17918636361881
AAUSAT 4                
1 41460U 16025E   22329.50300411  .00018077  00000+0  57771-3 0  9993
2 41460  98.1791 155.1151 0109051  51.5224 335.5549 15.26827195362445
BEESAT-4                
1 41619U 16040W   22328.39341093  .00014907  00000+0  42020-3 0  9992
2 41619  97.1955  15.0621 0006382 259.9869 100.0655 15.36496178345235
